OBJECT_NAME,OBJECT_ID,EPOCH,MEAN_MOTION,ECCENTRICITY,INCLINATION,RA_OF_ASC_NODE,ARG_OF_PERICENTER,MEAN_ANOMALY,EPHEMERIS_TYPE,CLASSIFICATION_TYPE,NORAD_CAT_ID,ELEMENT_SET_NO,REV_AT_EPOCH,BSTAR,MEAN_MOTION_DOT,MEAN_MOTION_DDOT
BRO-14,2024-149CM,2026-05-21T12:14:43.773504,14.96121581,.00067165,97.6880,217.7674,173.1083,187.0232,0,U,60551,999,9600,.36357833E-4,.352E-5,0
SATELIOT_3,2024-149CN,2026-05-21T05:11:52.569888,14.97924488,.00058273,97.6819,218.3310,159.9853,200.1599,0,U,60552,999,9604,.13760314E-3,.1564E-4,0
BRO-15,2024-149CP,2026-05-21T11:48:33.287616,14.96076987,.00084877,97.6808,217.3762,165.7787,194.3675,0,U,60553,999,9601,.96058644E-4,.1023E-4,0
UM5-RIBAT,2024-149CQ,2026-05-21T03:21:19.980576,15.00900293,.00036705,97.6651,219.3051,104.9414,255.2216,0,U,60554,999,9613,.15001864E-3,.185E-4,0
UM5-EOSAT,2024-149CR,2026-05-21T04:19:56.465760,15.01308600,.00075641,97.6651,220.2519,193.8914,166.2103,0,U,60555,999,9616,.18154065E-3,.2277E-4,0
LASARSAT,2024-247Q,2026-05-20T19:53:01.858272,15.44503182,.00058604,44.9760,55.7382,176.3157,183.7776,0,U,62391,999,7908,.47395813E-3,.22182E-3,0
CROCUBE,2024-247T,2026-05-21T02:46:59.164320,15.46151390,.00055815,44.9732,51.8723,180.8555,179.2327,0,U,62394,999,7915,.48363113E-3,.23976E-3,0
TEVEL2-4,2025-052D,2026-05-21T05:50:24.298656,15.33556855,.00027189,97.3929,37.6071,152.9151,207.2234,0,U,63213,999,6598,.37958417E-3,.12242E-3,0
TEVEL2-5,2025-052E,2026-05-21T10:57:39.774240,15.33404841,.00026461,97.3927,37.7758,153.1959,206.9420,0,U,63214,999,6601,.39199943E-3,.12585E-3,0
TEVEL2-6,2025-052F,2026-05-21T14:22:25.822272,15.33369876,.00027758,97.3928,37.9026,153.8216,206.3167,0,U,63215,999,6603,.38436169E-3,.12324E-3,0
TEVEL2-1,2025-052H,2026-05-21T10:09:24.174144,15.32869635,.00022514,97.3904,37.3820,164.9944,195.1365,0,U,63217,999,6599,.35636605E-3,.1124E-3,0
TEVEL2-3,2025-052J,2026-05-21T05:21:00.022752,15.32914108,.00021977,97.3903,37.2007,167.5509,192.5788,0,U,63218,999,6596,.36824387E-3,.11634E-3,0
TEVEL2-2,2025-052K,2026-05-21T10:10:02.597088,15.32876877,.00021732,97.3905,37.3842,166.3510,193.7791,0,U,63219,999,6599,.37812999E-3,.11935E-3,0
TEVEL2-9,2025-052AD,2026-05-21T10:22:53.033664,15.30983250,.00045414,97.3961,36.8246,221.5254,138.5642,0,U,63237,999,6593,.36543316E-3,.10869E-3,0
TEVEL2-7,2025-052AE,2026-05-21T09:40:33.353184,15.30709742,.00046654,97.3968,36.7225,221.7532,138.3354,0,U,63238,999,6592,.3626856E-3,.10696E-3,0
TEVEL2-8,2025-052AF,2026-05-20T22:53:03.923232,15.30681443,.0004539,97.3969,36.2522,224.9979,135.0895,0,U,63239,999,6585,.35856569E-3,.10564E-3,0
HADES-ICM,2025-052BN,2026-05-21T06:23:48.972192,16.26141053,.00120822,97.3646,46.2798,212.8267,147.2276,0,U,63492,999,6656,.20834391E-2,.6532167E-1,.2459581E-5
FORESAIL-1 PRIME,2025-276DS,2026-05-21T10:35:38.864256,15.18421959,.00026098,97.4202,215.2063,162.0335,198.0992,0,U,66778,999,2634,.16017458E-3,.3229E-4,0
